SL-14 R/B               
1 16792U 86046B   26037.68903284  .00000621  00000+0  68769-4 0  9995
2 16792  82.4818 109.4773 0022374 333.9709  26.0380 14.85560379121800
SL-14 R/B               
1 16882U 86055B   26037.83111985  .00000769  00000+0  85690-4 0  9996
2 16882  82.5232 155.6688 0020365  75.6163  43.1775 14.85609873114781
AJISAI (EGS)            
1 16908U 86061A   26037.80566278 -.00000097  00000+0  49870-5 0  9994
2 16908  50.0069 188.3156 0011239 207.4745 259.2622 12.44515317464154
COSMOS 1812             
1 17295U 87003A   26037.85716231  .00297840  32657-4  81295-3 0  9998
2 17295  82.4778 230.5559 0000971 326.7157  33.4056 15.94050653139539
SL-14 R/B               
1 17567U 87024B   26037.66640866  .00000650  00000+0  71296-4 0  9996
2 17567  82.5294 121.9207 0018368   8.4394 351.7127 14.86102255 83522
COSMOS 1833             
1 17589U 87027A   26037.42973090  .00000073  00000+0  64882-4 0  9997
2 17589  70.9210  31.7158 0024868 256.3065 103.5287 14.13055988  5905
SL-16 R/B               
1 17590U 87027B   26037.84684262 -.00000129  00000+0 -40176-4 0  9999
2 17590  71.0050 341.4864 0005194 195.8966 164.1995 14.17163783 10973
SL-14 R/B               
1 17912U 87038B   26037.84748418  .00000757  00000+0  85049-4 0  9996
2 17912  82.5043 325.8548 0017687 266.6831  93.2362 14.85338706 74652
COSMOS 1844             
1 17973U 87041A   26037.63939714  .00000361  00000+0  21227-3 0  9993
2 17973  70.8981  99.6724 0028823  67.8471 292.5705 14.14538805999191
SL-14 R/B               
1 18153U 87055B   26037.35829771  .00000750  00000+0  83564-4 0  9994
2 18153  82.4993  18.5565 0022121 115.2671 245.0841 14.85590437 65287
COSMOS 1867             
1 18187U 87060A   26037.00351258 -.00000018  00000+0  30771-4 0  9999
2 18187  65.0107  35.4392 0014084 276.2768  83.6712 14.31497768 15404
SL-14 R/B               
1 18749U 88001B   26037.62089114  .00000633  00000+0  70444-4 0  9999
2 18749  82.5105 224.5832 0017668 345.9404  14.1318 14.85490639 37417
